BLACKJACK ACES-4        
1 56952U 23084W   24199.30216796  .00018460  00000+0  75762-3 0  9991
2 56952  97.5439 318.6447 0008884 258.0264 101.9978 15.24244729 60746
BLACKJACK ACES-2        
1 56955U 23084Z   24199.39023218  .00021316  00000+0  91850-3 0  9998
2 56955  97.5444 318.6890 0008845 262.3506  97.6725 15.22565259 60755
BLACKJACK ACES-1        
1 56956U 23084AA  24199.57696756  .00022363  00000+0  96078-3 0  9992
2 56956  97.5417 318.8734 0009260 261.9140  98.1045 15.22650987 10508
ION SCV-011             
1 56957U 23084AB  24199.59514447  .00009725  00000+0  50935-3 0  9990
2 56957  98.0699 319.9042 0008284 295.4650  64.5724 15.16010978 59309
GHOST-3                 
1 56958U 23084AC  24199.30097085  .00011535  00000+0  52528-3 0  9996
2 56958  97.5453 317.9345 0010148 267.7273  92.2800 15.20806331 60699
TOMORROW-R2             
1 56962U 23084AG  24199.29085445  .00016660  00000+0  70612-3 0  9994
2 56962  97.5435 318.5054 0010053 263.0787  96.9306 15.23168315 60735
AFR-1                   
1 56964U 23084AJ  24199.56187949  .00008105  00000+0  40431-3 0  9999
2 56964  97.5477 317.5137 0011852 269.1277  90.8598 15.17729326 60681
DROID.001               
1 56965U 23084AK  24199.34802598  .00017942  00000+0  74682-3 0  9994
2 56965  97.5421 318.6499 0010042 257.5992 102.4121 15.23765917 60752
MUSAT1                  
1 56967U 23084AM  24199.42958867  .00051021  00000+0  13738-2 0  9996
2 56967  97.5353 321.8017 0008393 239.0226 121.0194 15.37648345 60972
AII-DELTA               
1 56987U 23084BH  24199.61989984  .00048637  00000+0  14775-2 0  9994
2 56987  97.5348 321.2352 0009718 234.4039 125.6298 15.33865228 60968
SPEI SATELLES           
1 56991U 23084BT  24199.61769934  .00039997  00000+0  13775-2 0  9998
2 56991  97.5375 320.2901 0008177 238.1851 121.8594 15.29891535 60897
URESAT-1                
1 56992U 23084BU  24199.61739494  .00047707  00000+0  16284-2 0  9993
2 56992  97.5332 319.3502 0011264 273.6089  86.3863 15.30110780 60831
MRC-100                 
1 56993U 23084BV  24199.60863410  .00056397  00000+0  17818-2 0  9998
2 56993  97.5331 319.8469 0010805 271.4627  88.5377 15.32564305 60878
METEOR-M2 3             
1 57166U 23091A   24199.61230061  .00000099  00000+0  62571-4 0  9996
2 57166  98.7111 254.0107 0004804  53.2043 306.9576 14.23905199 54958
STRATOSAT-TK 1 (RS52S)  
1 57167U 23091B   24199.57858176  .00024995  00000+0  13956-2 0  9997
2 57167  97.6098 252.5827 0014540  21.1394 339.0435 15.13427279 58159
UMKA 1 (RS40S)          
1 57172U 23091G   24199.59416245  .00009339  00000+0  60901-3 0  9990
2 57172  97.6105 251.3367 0016939  24.2290 335.9731 15.07990343 58078
2023-091H               
1 57173U 23091H   24199.57014012  .00013823  00000+0  87794-3 0  9997
2 57173  97.6098 251.3677 0015178  33.0111 327.2061 15.08880250 58074
2023-091J               
1 57174U 23091J   24199.55659783  .00007750  00000+0  53610-3 0  9998
2 57174  97.6120 250.6380 0016152  33.9434 326.2823 15.05869830 58022
CUBEBEL 2 (EU11S)       
1 57175U 23091K   24199.59579359  .00012541  00000+0  79869-3 0  9991
2 57175  97.6105 251.3227 0015567  36.5008 323.7278 15.08800007 58074
SITRO-AIS 5 (KATYS)     
1 57176U 23091L   24199.59929701  .00013007  00000+0  82159-3 0  9996
2 57176  97.6115 251.5283 0017636  24.0948 336.1101 15.09062076 58085
ZORKIY-2M 1             
1 57177U 23091M   24199.58547595  .00009000  00000+0  58383-3 0  9993
2 57177  97.6117 251.4339 0017494  19.4474 340.7418 15.08187278 58075
CUBESX-HSE 3 (RS42S)    
1 57178U 23091N   24199.58716970  .00012959  00000+0  80860-3 0  9991
2 57178  97.6138 251.8362 0016974  17.5879 342.5933 15.09520413 58096
MONITOR-3 (RS58S)       
1 57180U 23091Q   24199.58384613  .00011841  00000+0  74998-3 0  9993
2 57180  97.6130 251.6554 0017318  17.9555 342.2282 15.08992546 58082
MONITOR-4 (RS57S)       
1 57182U 23091S   24199.58462682  .00011925  00000+0  75497-3 0  9996
2 57182  97.6124 251.6273 0017386  18.6205 341.5656 15.09003889 58081
MONITOR-2 (RS39S)       
1 57184U 23091U   24199.55638556  .00009141  00000+0  59598-3 0  9991
2 57184  97.6137 251.6908 0014091  13.7365 346.4244 15.08039887 58088
SVYATOBOR 1 (RS60S)     
1 57187U 23091X   24199.61309664  .00011790  00000+0  73329-3 0  9997
2 57187  97.6139 252.2366 0013318  11.5442 348.6090 15.09708995 58123
HORS 1                  
1 57188U 23091Y   24199.60925477  .00011899  00000+0  74033-3 0  9996
2 57188  97.6118 252.1520 0012686  12.6812 347.4733 15.09702577 58123
VIZARD-METEO (RS38S)    
1 57189U 23091Z   24199.53967763  .00014452  00000+0  86158-3 0  9992
2 57189  97.6131 252.6035 0012014   9.8557 350.2907 15.11215655 58140
NANOZOND 1 (RS49S)      
1 57190U 23091AA  24199.48834949  .00021077  00000+0  11604-2 0  9991
2 57190  97.6104 253.1563 0010235  14.6825 345.4701 15.14012411 58189
SITRO-AIS 6 (CHIRKIN)   
1 57192U 23091AC  24199.58326305  .00012402  00000+0  78254-3 0  9993
2 57192  97.6107 251.5392 0017355  23.2175 336.9834 15.09117202 58089
SITRO-AIS 8 (ANOKHIN)   
1 57193U 23091AD  24199.61069525  .00014230  00000+0  88829-3 0  9996
2 57193  97.6112 251.6478 0017173  24.5736 335.6308 15.09479418 58090
SITRO-AIS 7 (FARTUSHNIY)
1 57194U 23091AE  24199.58919130  .00012412  00000+0  78415-3 0  9999
2 57194  97.6108 251.5243 0017290  24.1595 336.0440 15.09072927 58089
AVION KALUGA 650        
1 57195U 23091AF  24199.61303392  .00008635  00000+0  55843-3 0  9993
2 57195  97.6150 251.9881 0013419  15.5262 344.6375 15.08366479 58105
HORS 2                  
1 57196U 23091AG  24199.55722413  .00013977  00000+0  84660-3 0  9990
2 57196  97.6130 252.4370 0012550  12.4780 347.6758 15.10642177 58135
A-SEANSAT-PG1           
1 57197U 23091AH  24199.57521166  .00015731  00000+0  94081-3 0  9993
2 57197  97.6108 252.4741 0012178  15.1989 344.9604 15.11079577 58140
YARILO 3                
1 57198U 23091AJ  24199.58301590  .00035014  00000+0  16982-2 0  9991
2 57198  97.6150 254.3937 0009736  10.3445 349.7987 15.18376817 58259
SITRO-AIS 10 (BURDAEV)  
1 57199U 23091AK  24199.61042895  .00015680  00000+0  93126-3 0  9999
2 57199  97.6128 252.6403 0011970  14.9393 345.2188 15.11334078 58158
SITRO-AIS 9 (SHCHUKIN)  
1 57201U 23091AM  24199.60908088  .00015154  00000+0  90071-3 0  9999
2 57201  97.6122 252.6172 0011931  14.8773 345.2805 15.11315734 58151
UTMN 2 (RS27S)          
1 57203U 23091AP  24199.54078058  .00013441  00000+0  81346-3 0  9991
2 57203  97.6131 252.4455 0012446  10.1341 350.0137 15.10682341 58137
SITRO-AIS 12 (SMIRENNIY)
1 57204U 23091AQ  24199.56772569  .00016010  00000+0  94633-3 0  9990
2 57204  97.6127 252.7189 0011667   7.9469 352.1944 15.11505560 58158
ARCCUBE 1 (RS25S)       
1 57205U 23091AR  24199.57461343  .00026433  00000+0  14026-2 0  9994
2 57205  97.6071 253.3925 0010179  14.6756 345.4770 15.15276244 58210
SITRO-AIS 11 (SHEFFER)  
1 57208U 23091AU  24199.55171559  .00015602  00000+0  92014-3 0  9992
2 57208  97.6129 252.7286 0011538   9.1526 350.9912 15.11593383 58158
H2SAT (HEINRICH HERTZ)  
1 57213U 23093A   24198.99548866  .00000018  00000+0  00000+0 0  9991
2 57213   0.0167  75.8337 0000915 166.9705  51.3768  1.00271386  3894
KUZGTU 1 (RS47S)        
1 57217U 23091AV  24199.53247980  .00012990  00000+0  81405-3 0  9991
2 57217  97.6116 251.6310 0017009  19.7540 340.4343 15.09363067 58087
2023-103B               
1 57422U 23103B   24199.48903685  .00086912  00000+0  48853-3 0  9993
2 57422  96.5816 267.6849 0000707 224.6031 135.5181 15.78999492 56324
FENGYUN 3F              
1 57490U 23111A   24199.60407830  .00000238  00000+0  13314-3 0  9993
2 57490  98.7686 268.4539 0001387  58.3122 301.8189 14.19838589 49580
HJ-2F                   
1 57519U 23116A   24199.56012939  .00019636  00000+0  86262-3 0  9991
2 57519  97.3887 205.7704 0003358 140.5642 219.5839 15.21950237 52310
XRISM                   
1 57800U 23137A   24199.61090659  .00007321  00000+0  54532-3 0  9991
2 57800  31.0014 178.8992 0009646 152.7525 207.3618 15.01544455 47188
